IRIDIUM 26              
1 24903U 97043A   25194.43513869  .00000306  00000+0  96396-4 0  9996
2 24903  86.3951  99.5976 0002216  79.4971 280.6476 14.37161456460512
IRIDIUM 22              
1 24907U 97043E   25194.45635186  .00000252  00000+0  80099-4 0  9992
2 24907  86.3959 103.1514 0002126  84.2879 275.8560 14.35971815460544
DUMMY MASS 1            
1 24925U 97048A   25194.52740526  .00000324  00000+0  32960-4 0  9994
2 24925  86.3364 123.1546 0008740  62.7923 297.4191 14.87002904509040
DUMMY MASS 2            
1 24926U 97048B   25194.56124833  .00000315  00000+0  32198-4 0  9999
2 24926  86.3366 124.7509 0009728  71.0099 289.2179 14.86754913508826
IRIDIUM 29              
1 24944U 97051A   25194.53960048  .00000291  00000+0  92672-4 0  9992
2 24944  86.3983 132.8490 0002200  90.3770 269.7679 14.36484487457055
IRIDIUM 33              
1 24946U 97051C   25194.34113993  .00000254  00000+0  82397-4 0  9994
2 24946  86.3899 132.1947 0008063   9.4979 350.6368 14.34905634456490
IRIDIUM 28              
1 24948U 97051E   25194.56619410  .00000268  00000+0  83027-4 0  9991
2 24948  86.3987 130.3393 0002356  73.1855 286.9601 14.37400517457636
IRIDIUM 36              
1 24967U 97056C   25194.45582108  .00000293  00000+0  90907-4 0  9991
2 24967  86.4002 161.9703 0002064  83.2456 276.8976 14.37625686455992
